[{"OBJECT_NAME":"ONEWEB-0255","OBJECT_ID":"2021-060G","EPOCH":"2026-03-03T11:37:33.193344","MEAN_MOTION":13.16593577,"ECCENTRICITY":0.0001756,"INCLINATION":87.8999,"RA_OF_ASC_NODE":249.8085,"ARG_OF_PERICENTER":101.9055,"MEAN_ANOMALY":258.2273,"EPHEMERIS_TYPE":0,"CLASSIFICATION_TYPE":"U","NORAD_CAT_ID":48973,"ELEMENT_SET_NO":999,"REV_AT_EPOCH":22575,"BSTAR":2.6204e-5,"MEAN_MOTION_DOT":2.3e-7,"MEAN_MOTION_DDOT":0},{"OBJECT_NAME":"ONEWEB-0256","OBJECT_ID":"2021-060H","EPOCH":"2026-03-03T12:15:10.127232","MEAN_MOTION":13.16593768,"ECCENTRICITY":0.0001494,"INCLINATION":87.9002,"RA_OF_ASC_NODE":249.8105,"ARG_OF_PERICENTER":91.484,"MEAN_ANOMALY":268.6462,"EPHEMERIS_TYPE":0,"CLASSIFICATION_TYPE":"U","NORAD_CAT_ID":48974,"ELEMENT_SET_NO":999,"REV_AT_EPOCH":22572,"BSTAR":0.00039024,"MEAN_MOTION_DOT":1.62e-6,"MEAN_MOTION_DDOT":0},{"OBJECT_NAME":"ONEWEB-0257","OBJECT_ID":"2021-060J","EPOCH":"2026-03-03T11:12:27.844416","MEAN_MOTION":13.16592966,"ECCENTRICITY":0.0001592,"INCLINATION":87.9,"RA_OF_ASC_NODE":249.8031,"ARG_OF_PERICENTER":98.8573,"MEAN_ANOMALY":261.2738,"EPHEMERIS_TYPE":0,"CLASSIFICATION_TYPE":"U","NORAD_CAT_ID":48975,"ELEMENT_SET_NO":999,"REV_AT_EPOCH":22567,"BSTAR":-0.00018458,"MEAN_MOTION_DOT":-5.8e-7,"MEAN_MOTION_DDOT":0},{"OBJECT_NAME":"ONEWEB-0258","OBJECT_ID":"2021-060K","EPOCH":"2026-03-03T11:14:44.956032","MEAN_MOTION":13.16593131,"ECCENTRICITY":0.0001678,"INCLINATION":87.8997,"RA_OF_ASC_NODE":249.8142,"ARG_OF_PERICENTER":92.6678,"MEAN_ANOMALY":267.4645,"EPHEMERIS_TYPE":0,"CLASSIFICATION_TYPE":"U","NORAD_CAT_ID":48976,"ELEMENT_SET_NO":999,"REV_AT_EPOCH":22568,"BSTAR":-0.00012383,"MEAN_MOTION_DOT":-3.4e-7,"MEAN_MOTION_DDOT":0},{"OBJECT_NAME":"ONEWEB-0259","OBJECT_ID":"2021-060L","EPOCH":"2026-03-03T11:05:37.226688","MEAN_MOTION":13.16593744,"ECCENTRICITY":0.0001729,"INCLINATION":87.9002,"RA_OF_ASC_NODE":249.814,"ARG_OF_PERICENTER":97.9634,"MEAN_ANOMALY":262.1694,"EPHEMERIS_TYPE":0,"CLASSIFICATION_TYPE":"U","NORAD_CAT_ID":48977,"ELEMENT_SET_NO":999,"REV_AT_EPOCH":22571,"BSTAR":5.7592e-6,"MEAN_MOTION_DOT":1.5e-7,"MEAN_MOTION_DDOT":0},{"OBJECT_NAME":"ONEWEB-0260","OBJECT_ID":"2021-060M","EPOCH":"2026-03-03T10:53:04.832160","MEAN_MOTION":13.16594049,"ECCENTRICITY":0.0001177,"INCLINATION":87.8999,"RA_OF_ASC_NODE":249.8219,"ARG_OF_PERICENTER":91.8332,"MEAN_ANOMALY":268.2934,"EPHEMERIS_TYPE":0,"CLASSIFICATION_TYPE":"U","NORAD_CAT_ID":48978,"ELEMENT_SET_NO":999,"REV_AT_EPOCH":22569,"BSTAR":-5.3734e-5,"MEAN_MOTION_DOT":-8.0e-8,"MEAN_MOTION_DDOT":0},{"OBJECT_NAME":"ONEWEB-0261","OBJECT_ID":"2021-060N","EPOCH":"2026-03-03T11:59:08.050272","MEAN_MOTION":13.16591596,"ECCENTRICITY":0.0001616,"INCLINATION":87.899,"RA_OF_ASC_NODE":249.8134,"ARG_OF_PERICENTER":107.6558,"MEAN_ANOMALY":252.4749,"EPHEMERIS_TYPE":0,"CLASSIFICATION_TYPE":"U","NORAD_CAT_ID":48979,"ELEMENT_SET_NO":999,"REV_AT_EPOCH":22575,"BSTAR":-0.00012741,"MEAN_MOTION_DOT":-3.6e-7,"MEAN_MOTION_DDOT":0},{"OBJECT_NAME":"ONEWEB-0262","OBJECT_ID":"2021-060P","EPOCH":"2026-03-03T11:30:42.435648","MEAN_MOTION":13.16593224,"ECCENTRICITY":0.0001906,"INCLINATION":87.9,"RA_OF_ASC_NODE":249.7987,"ARG_OF_PERICENTER":97.583,"MEAN_ANOMALY":262.5518,"EPHEMERIS_TYPE":0,"CLASSIFICATION_TYPE":"U","NORAD_CAT_ID":48980,"ELEMENT_SET_NO":999,"REV_AT_EPOCH":22571,"BSTAR":-1.1059e-5,"MEAN_MOTION_DOT":9.0e-8,"MEAN_MOTION_DDOT":0},{"OBJECT_NAME":"ONEWEB-0263","OBJECT_ID":"2021-060Q","EPOCH":"2026-03-03T12:16:17.678208","MEAN_MOTION":13.16593459,"ECCENTRICITY":0.0001728,"INCLINATION":87.9001,"RA_OF_ASC_NODE":249.8039,"ARG_OF_PERICENTER":106.4802,"MEAN_ANOMALY":253.6519,"EPHEMERIS_TYPE":0,"CLASSIFICATION_TYPE":"U","NORAD_CAT_ID":48981,"ELEMENT_SET_NO":999,"REV_AT_EPOCH":22568,"BSTAR":0.00034305,"MEAN_MOTION_DOT":1.44e-6,"MEAN_MOTION_DDOT":0},{"OBJECT_NAME":"ONEWEB-0264","OBJECT_ID":"2021-060R","EPOCH":"2026-03-03T11:20:25.554336","MEAN_MOTION":13.16593666,"ECCENTRICITY":0.0001446,"INCLINATION":87.8999,"RA_OF_ASC_NODE":249.8152,"ARG_OF_PERICENTER":101.7469,"MEAN_ANOMALY":258.3824,"EPHEMERIS_TYPE":0,"CLASSIFICATION_TYPE":"U","NORAD_CAT_ID":48982,"ELEMENT_SET_NO":999,"REV_AT_EPOCH":22568,"BSTAR":-0.00089688,"MEAN_MOTION_DOT":-3.3e-6,"MEAN_MOTION_DDOT":0},{"OBJECT_NAME":"ONEWEB-0266","OBJECT_ID":"2021-060T","EPOCH":"2026-03-03T11:51:14.343264","MEAN_MOTION":13.16577952,"ECCENTRICITY":0.0001713,"INCLINATION":87.8998,"RA_OF_ASC_NODE":249.8005,"ARG_OF_PERICENTER":93.7216,"MEAN_ANOMALY":266.4111,"EPHEMERIS_TYPE":0,"CLASSIFICATION_TYPE":"U","NORAD_CAT_ID":48984,"ELEMENT_SET_NO":999,"REV_AT_EPOCH":22567,"BSTAR":-0.0050407,"MEAN_MOTION_DOT":-1.913e-5,"MEAN_MOTION_DDOT":0},{"OBJECT_NAME":"ONEWEB-0267","OBJECT_ID":"2021-060U","EPOCH":"2026-03-03T12:07:10.478496","MEAN_MOTION":13.16593139,"ECCENTRICITY":0.0001586,"INCLINATION":87.8999,"RA_OF_ASC_NODE":249.7951,"ARG_OF_PERICENTER":101.828,"MEAN_ANOMALY":258.3029,"EPHEMERIS_TYPE":0,"CLASSIFICATION_TYPE":"U","NORAD_CAT_ID":48985,"ELEMENT_SET_NO":999,"REV_AT_EPOCH":22568,"BSTAR":0.00030973,"MEAN_MOTION_DOT":1.31e-6,"MEAN_MOTION_DDOT":0},{"OBJECT_NAME":"ONEWEB-0268","OBJECT_ID":"2021-060V","EPOCH":"2026-03-03T11:21:35.214336","MEAN_MOTION":13.16593182,"ECCENTRICITY":0.0001536,"INCLINATION":87.9,"RA_OF_ASC_NODE":249.8108,"ARG_OF_PERICENTER":95.9283,"MEAN_ANOMALY":264.2023,"EPHEMERIS_TYPE":0,"CLASSIFICATION_TYPE":"U","NORAD_CAT_ID":48986,"ELEMENT_SET_NO":999,"REV_AT_EPOCH":22594,"BSTAR":1.7505e-5,"MEAN_MOTION_DOT":2.0e-7,"MEAN_MOTION_DDOT":0},{"OBJECT_NAME":"ONEWEB-0269","OBJECT_ID":"2021-060W","EPOCH":"2026-03-03T10:54:13.457088","MEAN_MOTION":13.165935,"ECCENTRICITY":0.0001476,"INCLINATION":87.8988,"RA_OF_ASC_NODE":249.8289,"ARG_OF_PERICENTER":87.5005,"MEAN_ANOMALY":272.6295,"EPHEMERIS_TYPE":0,"CLASSIFICATION_TYPE":"U","NORAD_CAT_ID":48987,"ELEMENT_SET_NO":999,"REV_AT_EPOCH":22571,"BSTAR":-1.4396e-5,"MEAN_MOTION_DOT":7.0e-8,"MEAN_MOTION_DDOT":0},{"OBJECT_NAME":"ONEWEB-0270","OBJECT_ID":"2021-060X","EPOCH":"2026-03-03T11:19:18.506208","MEAN_MOTION":13.16593141,"ECCENTRICITY":0.0001895,"INCLINATION":87.8999,"RA_OF_ASC_NODE":249.8132,"ARG_OF_PERICENTER":104.7755,"MEAN_ANOMALY":255.3586,"EPHEMERIS_TYPE":0,"CLASSIFICATION_TYPE":"U","NORAD_CAT_ID":48988,"ELEMENT_SET_NO":999,"REV_AT_EPOCH":22575,"BSTAR":-0.00014705,"MEAN_MOTION_DOT":-4.3e-7,"MEAN_MOTION_DDOT":0},{"OBJECT_NAME":"ONEWEB-0271","OBJECT_ID":"2021-060Y","EPOCH":"2026-03-03T11:01:04.232928","MEAN_MOTION":13.16596101,"ECCENTRICITY":0.0001647,"INCLINATION":87.9002,"RA_OF_ASC_NODE":249.8064,"ARG_OF_PERICENTER":103.7822,"MEAN_ANOMALY":256.3492,"EPHEMERIS_TYPE":0,"CLASSIFICATION_TYPE":"U","NORAD_CAT_ID":48989,"ELEMENT_SET_NO":999,"REV_AT_EPOCH":22575,"BSTAR":-6.8197e-5,"MEAN_MOTION_DOT":-1.3e-7,"MEAN_MOTION_DDOT":0},{"OBJECT_NAME":"ONEWEB-0272","OBJECT_ID":"2021-060Z","EPOCH":"2026-03-03T11:32:58.425792","MEAN_MOTION":13.16595563,"ECCENTRICITY":0.0001452,"INCLINATION":87.8999,"RA_OF_ASC_NODE":249.8134,"ARG_OF_PERICENTER":103.4016,"MEAN_ANOMALY":256.7277,"EPHEMERIS_TYPE":0,"CLASSIFICATION_TYPE":"U","NORAD_CAT_ID":48990,"ELEMENT_SET_NO":999,"REV_AT_EPOCH":22570,"BSTAR":2.4995e-5,"MEAN_MOTION_DOT":2.2e-7,"MEAN_MOTION_DDOT":0}]
