ONEWEB-0255             
1 48973U 21060G   26062.48441196  .00000023  00000+0  26204-4 0  9995
2 48973  87.8999 249.8085 0001756 101.9055 258.2273 13.16593577225756
ONEWEB-0256             
1 48974U 21060H   26062.51053388  .00000162  00000+0  39024-3 0  9999
2 48974  87.9002 249.8105 0001494  91.4840 268.6462 13.16593768225724
ONEWEB-0257             
1 48975U 21060J   26062.46698894 -.00000058  00000+0 -18458-3 0  9995
2 48975  87.9000 249.8031 0001592  98.8573 261.2738 13.16592966225672
ONEWEB-0258             
1 48976U 21060K   26062.46857588 -.00000034  00000+0 -12383-3 0  9998
2 48976  87.8997 249.8142 0001678  92.6678 267.4645 13.16593131225684
ONEWEB-0259             
1 48977U 21060L   26062.46223642  .00000015  00000+0  57592-5 0  9997
2 48977  87.9002 249.8140 0001729  97.9634 262.1694 13.16593744225718
ONEWEB-0260             
1 48978U 21060M   26062.45352815 -.00000008  00000+0 -53734-4 0  9999
2 48978  87.8999 249.8219 0001177  91.8332 268.2934 13.16594049225695
ONEWEB-0261             
1 48979U 21060N   26062.49939873 -.00000036  00000+0 -12741-3 0  9992
2 48979  87.8990 249.8134 0001616 107.6558 252.4749 13.16591596225757
ONEWEB-0262             
1 48980U 21060P   26062.47965782  .00000009  00000+0 -11059-4 0  9991
2 48980  87.9000 249.7987 0001906  97.5830 262.5518 13.16593224225711
ONEWEB-0263             
1 48981U 21060Q   26062.51131572  .00000144  00000+0  34305-3 0  9996
2 48981  87.9001 249.8039 0001728 106.4802 253.6519 13.16593459225681
ONEWEB-0264             
1 48982U 21060R   26062.47251799 -.00000330  00000+0 -89688-3 0  9999
2 48982  87.8999 249.8152 0001446 101.7469 258.3824 13.16593666225688
ONEWEB-0266             
1 48984U 21060T   26062.49391601 -.00001913  00000+0 -50407-2 0  9994
2 48984  87.8998 249.8005 0001713  93.7216 266.4111 13.16577952225671
ONEWEB-0267             
1 48985U 21060U   26062.50498239  .00000131  00000+0  30973-3 0  9998
2 48985  87.8999 249.7951 0001586 101.8280 258.3029 13.16593139225686
ONEWEB-0268             
1 48986U 21060V   26062.47332424  .00000020  00000+0  17505-4 0  9992
2 48986  87.9000 249.8108 0001536  95.9283 264.2023 13.16593182225944
ONEWEB-0269             
1 48987U 21060W   26062.45432242  .00000007  00000+0 -14396-4 0  9991
2 48987  87.8988 249.8289 0001476  87.5005 272.6295 13.16593500225714
ONEWEB-0270             
1 48988U 21060X   26062.47174197 -.00000043  00000+0 -14705-3 0  9990
2 48988  87.8999 249.8132 0001895 104.7755 255.3586 13.16593141225759
ONEWEB-0271             
1 48989U 21060Y   26062.45907677 -.00000013  00000+0 -68197-4 0  9998
2 48989  87.9002 249.8064 0001647 103.7822 256.3492 13.16596101225755
ONEWEB-0272             
1 48990U 21060Z   26062.48123178  .00000022  00000+0  24995-4 0  9995
2 48990  87.8999 249.8134 0001452 103.4016 256.7277 13.16595563225706
